[{"OBJECT_NAME":"1998-067XK","OBJECT_ID":"1998-067XK","EPOCH":"2025-09-24T18:57:30.485088","MEAN_MOTION":15.51961712,"ECCENTRICITY":0.00010503,"INCLINATION":51.6292,"RA_OF_ASC_NODE":173.3338,"ARG_OF_PERICENTER":122.5,"MEAN_ANOMALY":237.6091,"EPHEMERIS_TYPE":0,"CLASSIFICATION_TYPE":"U","NORAD_CAT_ID":65731,"ELEMENT_SET_NO":999,"REV_AT_EPOCH":83,"BSTAR":0.0012679405,"MEAN_MOTION_DOT":0.00077902,"MEAN_MOTION_DDOT":0},{"OBJECT_NAME":"1998-067XL","OBJECT_ID":"1998-067XL","EPOCH":"2025-09-25T10:24:38.070144","MEAN_MOTION":15.52123575,"ECCENTRICITY":6.42e-5,"INCLINATION":51.6319,"RA_OF_ASC_NODE":170.1365,"ARG_OF_PERICENTER":113.9202,"MEAN_ANOMALY":246.1855,"EPHEMERIS_TYPE":0,"CLASSIFICATION_TYPE":"U","NORAD_CAT_ID":65732,"ELEMENT_SET_NO":999,"REV_AT_EPOCH":94,"BSTAR":0.0013548541,"MEAN_MOTION_DOT":0.00083824,"MEAN_MOTION_DDOT":0},{"OBJECT_NAME":"1998-067XM","OBJECT_ID":"1998-067XM","EPOCH":"2025-09-25T10:24:12.074112","MEAN_MOTION":15.52270671,"ECCENTRICITY":0.00042543,"INCLINATION":51.6322,"RA_OF_ASC_NODE":170.1343,"ARG_OF_PERICENTER":67.2903,"MEAN_ANOMALY":292.8537,"EPHEMERIS_TYPE":0,"CLASSIFICATION_TYPE":"U","NORAD_CAT_ID":65733,"ELEMENT_SET_NO":999,"REV_AT_EPOCH":94,"BSTAR":0.001585836,"MEAN_MOTION_DOT":0.00098932,"MEAN_MOTION_DDOT":0}]
