1998-067XK              
1 65731U 98067XK  25267.78993617  .00077902  00000+0  12679-2 0  9995
2 65731  51.6292 173.3338 0001050 122.5000 237.6091 15.51961712   830
1998-067XL              
1 65732U 98067XL  25268.43377396  .00083824  00000+0  13549-2 0  9996
2 65732  51.6319 170.1365 0000642 113.9202 246.1855 15.52123575   943
1998-067XM              
1 65733U 98067XM  25268.43347308  .00098932  00000+0  15858-2 0  9998
2 65733  51.6322 170.1343 0004254  67.2903 292.8537 15.52270671   941
